[{"OBJECT_NAME":"HULIANWANG DIGUI-61","OBJECT_ID":"2025-174D","EPOCH":"2026-03-09T22:38:15.500544","MEAN_MOTION":13.24420402,"ECCENTRICITY":0.00012193,"INCLINATION":86.492,"RA_OF_ASC_NODE":285.5677,"ARG_OF_PERICENTER":93.0867,"MEAN_ANOMALY":267.0406,"EPHEMERIS_TYPE":0,"CLASSIFICATION_TYPE":"U","NORAD_CAT_ID":65167,"ELEMENT_SET_NO":999,"REV_AT_EPOCH":2765,"BSTAR":8.990013e-5,"MEAN_MOTION_DOT":5.3e-7,"MEAN_MOTION_DDOT":0},{"OBJECT_NAME":"PEGASUS DEB","OBJECT_ID":"1994-029YW","EPOCH":"2026-03-09T00:40:55.338528","MEAN_MOTION":14.11561087,"ECCENTRICITY":0.04478792,"INCLINATION":81.4462,"RA_OF_ASC_NODE":93.0128,"ARG_OF_PERICENTER":250.1381,"MEAN_ANOMALY":105.1008,"EPHEMERIS_TYPE":0,"CLASSIFICATION_TYPE":"U","NORAD_CAT_ID":24594,"ELEMENT_SET_NO":999,"REV_AT_EPOCH":49351,"BSTAR":0.0015343637,"MEAN_MOTION_DOT":7.284e-5,"MEAN_MOTION_DDOT":0}]
